[{"OBJECT_NAME":"TIANMU-1 21","OBJECT_ID":"2023-208C","EPOCH":"2026-03-09T21:48:13.065120","MEAN_MOTION":15.33041299,"ECCENTRICITY":0.00059807,"INCLINATION":97.4378,"RA_OF_ASC_NODE":187.7048,"ARG_OF_PERICENTER":317.2488,"MEAN_ANOMALY":42.8288,"EPHEMERIS_TYPE":0,"CLASSIFICATION_TYPE":"U","NORAD_CAT_ID":58662,"ELEMENT_SET_NO":999,"REV_AT_EPOCH":12234,"BSTAR":0.00040063782,"MEAN_MOTION_DOT":0.00012722,"MEAN_MOTION_DDOT":0},{"OBJECT_NAME":"STARLINK-32779","OBJECT_ID":"2025-034B","EPOCH":"2026-03-09T17:04:26.543712","MEAN_MOTION":15.30191894,"ECCENTRICITY":0.0001004,"INCLINATION":53.1574,"RA_OF_ASC_NODE":271.2683,"ARG_OF_PERICENTER":65.7568,"MEAN_ANOMALY":294.3537,"EPHEMERIS_TYPE":0,"CLASSIFICATION_TYPE":"U","NORAD_CAT_ID":63030,"ELEMENT_SET_NO":999,"REV_AT_EPOCH":5890,"BSTAR":0.0013815043,"MEAN_MOTION_DOT":0.00040771,"MEAN_MOTION_DDOT":0}]
